     2.11           N: GPS NAV DATA                         RINEX VERSION / TYPE
teqc  2019Feb25     CORS-ADM Account    20210105 15:49:07UTCPGM / RUN BY / DATE
Linux 2.4.21-27.ELsmp|Opteron|gcc|Linux 64|=+               COMMENT
     2.10           N: GPS NAV DATA                         COMMENT
rvacn.e(1404.07)                        2021-01-05T12:35 UTCCOMMENT
This file contains the validated broadcast navigation       COMMENT
messages from the following files:                          COMMENT
abmf0010.21n, abpo0010.21n, albh0010.21n, areq0010.21n,     COMMENT
badg0010.21n, bake0010.21n, bogt0010.21n, brew0010.21n,     COMMENT
chum0010.21n, chur0010.21n, cro10010.21n, dgar0010.21n,     COMMENT
drao0010.21n, dubo0010.21n, fair0010.21n, falk0010.21n,     COMMENT
flin0010.21n, glsv0010.21n, gode0010.21n, godz0010.21n,     COMMENT
gold0010.21n, hlfx0010.21n, holb0010.21n, hrao0010.21n,     COMMENT
iisc0010.21n, invk0010.21n, jplm0010.21n, kokb0010.21n,     COMMENT
kokv0010.21n, mana0010.21n, mbar0010.21n, mcm40010.21n,     COMMENT
mdo10010.21n, mkea0010.21n, nano0010.21n, nico0010.21n,     COMMENT
nvsk0010.21n, nya10010.21n, nyal0010.21n, ohi20010.21n,     COMMENT
pie10010.21n, pimo0010.21n, pol20010.21n, polv0010.21n,     COMMENT
sant0010.21n, sch20010.21n, stjo0010.21n, suth0010.21n,     COMMENT
tro10010.21n, unbj0010.21n, vndp0010.21n, whit0010.21n,     COMMENT
will0010.21n, yell0010.21n, zamb0010.21n                    COMMENT
    7.4510D-09 -1.4900D-08 -5.9600D-08  1.1920D-07          ION ALPHA
    9.2160D+04 -1.1470D+05 -1.3110D+05  7.2090D+05          ION BETA
   -3.725290298460D-09-1.065814103640D-14    61440     2139 DELTA-UTC: A0,A1,T,W
                                                            END OF HEADER
25 21  1  1  6  0  0.0 5.088327452540D-05 7.503331289627D-12 0.000000000000D+00
    3.300000000000D+01 5.659375000000D+01 4.251605667870D-09 4.851302104548D-01
    2.859160304070D-06 9.575938922353D-03 1.100264489651D-05 5.153691377640D+03
    4.536000000000D+05-1.583248376846D-07-2.912992023067D+00 1.247972249985D-07
    9.632204494951D-01 1.714375000000D+02 9.309304739966D-01-7.855327205909D-09
   -4.125171829965D-10 1.000000000000D+00 2.138000000000D+03 0.000000000000D+00
    2.000000000000D+00 0.000000000000D+00 5.587935447693D-09 3.300000000000D+01
    4.485520000000D+05 4.000000000000D+00
26 21  1  1  6  0  0.0 2.320902422071D-05 5.798028723802D-12 0.000000000000D+00
    1.300000000000D+01 4.681250000000D+01 4.631264339321D-09-1.017257816986D-01
    2.481043338776D-06 5.546361906454D-03 1.031532883644D-05 5.153736028671D+03
    4.536000000000D+05 9.313225746155D-08-2.952318853965D+00 4.284083843231D-08
    9.441930552364D-01 1.712500000000D+02 2.391599600523D-01-8.031048811133D-09
   -3.510860527148D-10 1.000000000000D+00 2.138000000000D+03 0.000000000000D+00
    2.000000000000D+00 0.000000000000D+00 6.984919309616D-09 1.300000000000D+01
    4.464180000000D+05 4.000000000000D+00
27 21  1  1  6  0  0.0-4.685064777732D-05-7.844391802792D-12 0.000000000000D+00
    8.500000000000D+01 1.215625000000D+02 4.226961784211D-09-1.958916164767D+00
    6.141141057014D-06 8.756618830375D-03 4.131346940994D-06 5.153675149918D+03
    4.536000000000D+05 6.705522537231D-08-1.865952939058D+00-7.636845111847D-08
    9.768561801752D-01 3.091875000000D+02 5.647018255491D-01-7.952831267344D-09
    3.718012012981D-10 1.000000000000D+00 2.138000000000D+03 0.000000000000D+00
    2.000000000000D+00 0.000000000000D+00 1.862645149231D-09 8.500000000000D+01
    4.464180000000D+05 4.000000000000D+00
28 21  1  1  6  0  0.0 6.356784142554D-04-5.115907697473D-12 0.000000000000D+00
    8.500000000000D+01 9.146875000000D+01 3.889804883130D-09-1.236380413396D+00
    4.868954420090D-06 1.814343675505D-02 1.167133450508D-05 5.153677677155D+03
    4.536000000000D+05-3.706663846970D-07-2.818978583099D+00 1.918524503708D-07
    9.750921716114D-01 1.698437500000D+02-1.359975243353D+00-7.778538293057D-09
   -2.621537768999D-10 1.000000000000D+00 2.138000000000D+03 0.000000000000D+00
    4.000000000000D+00 0.000000000000D+00-1.117587089539D-08 8.500000000000D+01
    4.464180000000D+05 4.000000000000D+00
29 21  1  1  6  0  0.0-2.671857364476D-04-7.389644451905D-12 0.000000000000D+00
    7.900000000000D+01 1.132187500000D+02 4.155173079637D-09-1.927996092090D+00
    5.969777703285D-06 1.443904009648D-03 4.382804036140D-06 5.153703853607D+03
    4.536000000000D+05-4.470348358154D-08-1.793973977051D+00 1.303851604462D-08
    9.846639641436D-01 3.109062500000D+02 2.228867939079D+00-7.987475567561D-09
    2.935836575092D-10 1.000000000000D+00 2.138000000000D+03 0.000000000000D+00
    2.000000000000D+00 0.000000000000D+00-1.024454832077D-08 7.900000000000D+01
    4.523980000000D+05 4.000000000000D+00
30 21  1  1  6  0  0.0-3.617471083999D-04-6.139089236967D-12 0.000000000000D+00
    6.700000000000D+01-1.453125000000D+01 5.358794643878D-09 1.465401899117D+00
   -6.798654794693D-07 4.749132203870D-03 5.917623639107D-06 5.153755588531D+03
    4.536000000000D+05-5.587935447693D-08 2.352630403357D+00 5.401670932770D-08
    9.372108369018D-01 2.535625000000D+02-2.846265402173D+00-8.335347200668D-09
   -3.885876148053D-10 1.000000000000D+00 2.138000000000D+03 0.000000000000D+00
    2.000000000000D+00 0.000000000000D+00 3.725290298462D-09 6.700000000000D+01
    4.464180000000D+05 4.000000000000D+00
31 21  1  1  6  0  0.0-9.114854037762D-05-2.387423592154D-12 0.000000000000D+00
    3.300000000000D+01-1.184375000000D+01 4.861273920143D-09 1.047024305611D+00
   -4.190951585770D-07 9.966114652343D-03 5.898997187614D-06 5.153707868576D+03
    4.536000000000D+05-3.911554813385D-08 2.349701098619D+00 1.545995473862D-07
    9.563223343210D-01 2.625000000000D+02 2.269071624055D-01-8.136410342721D-09
   -3.989451890970D-10 1.000000000000D+00 2.138000000000D+03 0.000000000000D+00
    2.000000000000D+00 0.000000000000D+00-1.303851604462D-08 3.300000000000D+01
    4.464180000000D+05 4.000000000000D+00
32 21  1  1  6  0  0.0 1.174351200461D-05 2.387423592154D-12 0.000000000000D+00
    5.000000000000D+00 9.687500000000D+00 4.664122850867D-09-1.216891875174D+00
    4.507601261139D-07 4.368274239823D-03 8.311122655869D-06 5.153616390228D+03
    4.536000000000D+05 1.601874828339D-07 1.269138856225D+00-3.911554813385D-08
    9.567240282188D-01 2.198750000000D+02-2.463339117950D+00-7.942116535318D-09
    4.550189533658D-10 1.000000000000D+00 2.138000000000D+03 0.000000000000D+00
    2.000000000000D+00 0.000000000000D+00 4.656612873077D-10 5.000000000000D+00
    4.472230000000D+05 4.000000000000D+00
 9 21  1  1  7 59 44.0-3.079334273934D-04-4.206412995700D-12 0.000000000000D+00
    5.000000000000D+00 1.537500000000D+01 4.779127641278D-09-4.783328566892D-01
    6.966292858124D-07 2.031505107880D-03 8.473172783852D-06 5.153587831497D+03
    4.607840000000D+05-8.940696716309D-08 1.259688775551D+00 6.146728992462D-08
    9.526998170743D-01 2.118437500000D+02 1.783413597146D+00-8.013190924423D-09
    5.357366012941D-10 1.000000000000D+00 2.138000000000D+03 0.000000000000D+00
    2.000000000000D+00 0.000000000000D+00 1.396983861923D-09 5.000000000000D+00
    4.584180000000D+05 4.000000000000D+00
10 21  1  1  7 59 44.0-2.919370308518D-05-8.640199666843D-12 0.000000000000D+00
    7.000000000000D+00-1.091562500000D+02 4.213032632577D-09 1.165524179572D+00
   -5.504116415977D-06 6.331124808639D-03 9.436160326004D-06 5.153676200867D+03
    4.607840000000D+05-5.587935447693D-09 2.267161945424D-01 7.264316082001D-08
    9.681327075047D-01 2.042187500000D+02-2.628817887925D+00-7.867470568871D-09
   -6.178828801592D-11 1.000000000000D+00 2.138000000000D+03 0.000000000000D+00
    2.000000000000D+00 0.000000000000D+00 2.328306000000D-09 7.000000000000D+00
    4.592100000000D+05 4.000000000000D+00
16 21  1  1  7 59 44.0-2.586492337286D-04-5.456968210638D-12 0.000000000000D+00
    1.000000000000D+00 6.146875000000D+01 3.910877189447D-09-5.463685961594D-03
    3.380700945854D-06 1.197126985062D-02 1.074559986591D-05 5.153630281448D+03
    4.607840000000D+05 8.195638656616D-08-2.822639307377D+00 1.844018697739D-07
    9.760303073286D-01 1.810625000000D+02 6.376094596562D-01-7.774252400246D-09
   -2.525105180766D-10 1.000000000000D+00 2.138000000000D+03 0.000000000000D+00
    2.000000000000D+00 0.000000000000D+00-1.071020960808D-08 1.000000000000D+00
    4.568460000000D+05 4.000000000000D+00
28 21  1  1  7 59 44.0 6.356425583363D-04-5.115907697473D-12 0.000000000000D+00
    5.000000000000D+00 6.750000000000D+01 4.009095566351D-09-1.886826358920D-01
    3.404915332794D-06 1.814042218029D-02 1.079775393009D-05 5.153669965744D+03
    4.607840000000D+05-2.831220626831D-07-2.819035597405D+00-7.450580596924D-08
    9.750903678335D-01 1.844687500000D+02-1.359829691782D+00-7.897471818544D-09
   -2.171519023912D-10 1.000000000000D+00 2.138000000000D+03 0.000000000000D+00
    2.000000000000D+00 0.000000000000D+00-1.117587089539D-08 5.000000000000D+00
    4.536180000000D+05 4.000000000000D+00
 1 21  1  1  8  0  0.0 7.873508147895D-04-5.911715561524D-12 0.000000000000D+00
    7.100000000000D+01-7.031250000000D+01 4.238747989439D-09-3.103691085260D+00
   -3.701075911522D-06 1.022414583713D-02 1.341104507446D-06 5.153692718506D+03
    4.608000000000D+05-9.313225746155D-09-8.089148684940D-01-2.291053533554D-07
    9.827371254830D-01 3.647187500000D+02 8.219192256749D-01-8.022834183247D-09
   -1.532206679701D-10 1.000000000000D+00 2.138000000000D+03 0.000000000000D+00
    2.000000000000D+00 0.000000000000D+00 5.122274160385D-09 7.100000000000D+01
    4.536180000000D+05 4.000000000000D+00
